{
  "type": "FeatureCollection",
  "features": [
    {
      "type": "Feature",
      "geometry": {
        "type": "Polygon",
        "coordinates": [
          [
            [
              -3.773333333333333,
              40.406
            ],
            [
              -3.7626666666666666,
              40.406
            ],
            [
              -3.7626666666666666,
              40.422
            ],
            [
              -3.773333333333333,
              40.422
            ],
            [
              -3.773333333333333,
              40.406
            ]
          ]
        ]
      },
      "properties": {
        "id_edificio": 1,
        "area_m2": 8000,
        "altura_m": 100,
        "ancho_m": 80,
        "tipo": "sintetico",
        "fill": "#BFC5CC",
        "fill-opacity": 0.85,
        "stroke": "#4A4A4A",
        "stroke-width": 0.8
      },
      "id": 0
    },
    {
      "type": "Feature",
      "geometry": {
        "type": "Polygon",
        "coordinates": [
          [
            [
              -3.7586666666666666,
              40.406
            ],
            [
              -3.7479999999999998,
              40.406
            ],
            [
              -3.7479999999999998,
              40.422
            ],
            [
              -3.7586666666666666,
              40.422
            ],
            [
              -3.7586666666666666,
              40.406
            ]
          ]
        ]
      },
      "properties": {
        "id_edificio": 2,
        "area_m2": 8000,
        "altura_m": 100,
        "ancho_m": 80,
        "tipo": "sintetico",
        "fill": "#BFC5CC",
        "fill-opacity": 0.85,
        "stroke": "#4A4A4A",
        "stroke-width": 0.8
      },
      "id": 1
    },
    {
      "type": "Feature",
      "geometry": {
        "type": "Polygon",
        "coordinates": [
          [
            [
              -3.7439999999999998,
              40.406
            ],
            [
              -3.7333333333333334,
              40.406
            ],
            [
              -3.7333333333333334,
              40.422
            ],
            [
              -3.7439999999999998,
              40.422
            ],
            [
              -3.7439999999999998,
              40.406
            ]
          ]
        ]
      },
      "properties": {
        "id_edificio": 3,
        "area_m2": 8000,
        "altura_m": 100,
        "ancho_m": 80,
        "tipo": "sintetico",
        "fill": "#BFC5CC",
        "fill-opacity": 0.85,
        "stroke": "#4A4A4A",
        "stroke-width": 0.8
      },
      "id": 2
    },
    {
      "type": "Feature",
      "geometry": {
        "type": "Polygon",
        "coordinates": [
          [
            [
              -3.7293333333333334,
              40.406
            ],
            [
              -3.7186666666666666,
              40.406
            ],
            [
              -3.7186666666666666,
              40.422
            ],
            [
              -3.7293333333333334,
              40.422
            ],
            [
              -3.7293333333333334,
              40.406
            ]
          ]
        ]
      },
      "properties": {
        "id_edificio": 4,
        "area_m2": 8000,
        "altura_m": 100,
        "ancho_m": 80,
        "tipo": "sintetico",
        "fill": "#BFC5CC",
        "fill-opacity": 0.85,
        "stroke": "#4A4A4A",
        "stroke-width": 0.8
      },
      "id": 3
    },
    {
      "type": "Feature",
      "geometry": {
        "type": "Polygon",
        "coordinates": [
          [
            [
              -3.714666666666667,
              40.406
            ],
            [
              -3.704,
              40.406
            ],
            [
              -3.704,
              40.422
            ],
            [
              -3.714666666666667,
              40.422
            ],
            [
              -3.714666666666667,
              40.406
            ]
          ]
        ]
      },
      "properties": {
        "id_edificio": 5,
        "area_m2": 8000,
        "altura_m": 100,
        "ancho_m": 80,
        "tipo": "sintetico",
        "fill": "#BFC5CC",
        "fill-opacity": 0.85,
        "stroke": "#4A4A4A",
        "stroke-width": 0.8
      },
      "id": 4
    },
    {
      "type": "Feature",
      "geometry": {
        "type": "Polygon",
        "coordinates": [
          [
            [
              -3.773333333333333,
              40.382
            ],
            [
              -3.764,
              40.382
            ],
            [
              -3.764,
              40.3964
            ],
            [
              -3.773333333333333,
              40.3964
            ],
            [
              -3.773333333333333,
              40.382
            ]
          ]
        ]
      },
      "properties": {
        "id_edificio": 6,
        "area_m2": 6300,
        "altura_m": 90,
        "ancho_m": 70,
        "tipo": "sintetico",
        "fill": "#BFC5CC",
        "fill-opacity": 0.85,
        "stroke": "#4A4A4A",
        "stroke-width": 0.8
      },
      "id": 5
    },
    {
      "type": "Feature",
      "geometry": {
        "type": "Polygon",
        "coordinates": [
          [
            [
              -3.7586666666666666,
              40.382
            ],
            [
              -3.7493333333333334,
              40.382
            ],
            [
              -3.7493333333333334,
              40.3964
            ],
            [
              -3.7586666666666666,
              40.3964
            ],
            [
              -3.7586666666666666,
              40.382
            ]
          ]
        ]
      },
      "properties": {
        "id_edificio": 7,
        "area_m2": 6300,
        "altura_m": 90,
        "ancho_m": 70,
        "tipo": "sintetico",
        "fill": "#BFC5CC",
        "fill-opacity": 0.85,
        "stroke": "#4A4A4A",
        "stroke-width": 0.8
      },
      "id": 6
    },
    {
      "type": "Feature",
      "geometry": {
        "type": "Polygon",
        "coordinates": [
          [
            [
              -3.7439999999999998,
              40.382
            ],
            [
              -3.7346666666666666,
              40.382
            ],
            [
              -3.7346666666666666,
              40.3964
            ],
            [
              -3.7439999999999998,
              40.3964
            ],
            [
              -3.7439999999999998,
              40.382
            ]
          ]
        ]
      },
      "properties": {
        "id_edificio": 8,
        "area_m2": 6300,
        "altura_m": 90,
        "ancho_m": 70,
        "tipo": "sintetico",
        "fill": "#BFC5CC",
        "fill-opacity": 0.85,
        "stroke": "#4A4A4A",
        "stroke-width": 0.8
      },
      "id": 7
    },
    {
      "type": "Feature",
      "geometry": {
        "type": "Polygon",
        "coordinates": [
          [
            [
              -3.7293333333333334,
              40.382
            ],
            [
              -3.72,
              40.382
            ],
            [
              -3.72,
              40.3964
            ],
            [
              -3.7293333333333334,
              40.3964
            ],
            [
              -3.7293333333333334,
              40.382
            ]
          ]
        ]
      },
      "properties": {
        "id_edificio": 9,
        "area_m2": 6300,
        "altura_m": 90,
        "ancho_m": 70,
        "tipo": "sintetico",
        "fill": "#BFC5CC",
        "fill-opacity": 0.85,
        "stroke": "#4A4A4A",
        "stroke-width": 0.8
      },
      "id": 8
    },
    {
      "type": "Feature",
      "geometry": {
        "type": "Polygon",
        "coordinates": [
          [
            [
              -3.714666666666667,
              40.382
            ],
            [
              -3.7053333333333334,
              40.382
            ],
            [
              -3.7053333333333334,
              40.3964
            ],
            [
              -3.714666666666667,
              40.3964
            ],
            [
              -3.714666666666667,
              40.382
            ]
          ]
        ]
      },
      "properties": {
        "id_edificio": 10,
        "area_m2": 6300,
        "altura_m": 90,
        "ancho_m": 70,
        "tipo": "sintetico",
        "fill": "#BFC5CC",
        "fill-opacity": 0.85,
        "stroke": "#4A4A4A",
        "stroke-width": 0.8
      },
      "id": 9
    },
    {
      "type": "Feature",
      "geometry": {
        "type": "Polygon",
        "coordinates": [
          [
            [
              -3.772,
              40.3564
            ],
            [
              -3.7533333333333334,
              40.3564
            ],
            [
              -3.7533333333333334,
              40.3724
            ],
            [
              -3.772,
              40.3724
            ],
            [
              -3.772,
              40.3564
            ]
          ]
        ]
      },
      "properties": {
        "id_edificio": 11,
        "area_m2": 14000,
        "altura_m": 100,
        "ancho_m": 140,
        "tipo": "sintetico",
        "fill": "#BFC5CC",
        "fill-opacity": 0.85,
        "stroke": "#4A4A4A",
        "stroke-width": 0.8
      },
      "id": 10
    },
    {
      "type": "Feature",
      "geometry": {
        "type": "Polygon",
        "coordinates": [
          [
            [
              -3.7466666666666666,
              40.3564
            ],
            [
              -3.7333333333333334,
              40.3564
            ],
            [
              -3.7333333333333334,
              40.3692
            ],
            [
              -3.7466666666666666,
              40.3692
            ],
            [
              -3.7466666666666666,
              40.3564
            ]
          ]
        ]
      },
      "properties": {
        "id_edificio": 12,
        "area_m2": 8000,
        "altura_m": 80,
        "ancho_m": 100,
        "tipo": "sintetico",
        "fill": "#BFC5CC",
        "fill-opacity": 0.85,
        "stroke": "#4A4A4A",
        "stroke-width": 0.8
      },
      "id": 11
    },
    {
      "type": "Feature",
      "geometry": {
        "type": "Polygon",
        "coordinates": [
          [
            [
              -3.7266666666666666,
              40.3564
            ],
            [
              -3.710666666666667,
              40.3564
            ],
            [
              -3.710666666666667,
              40.3708
            ],
            [
              -3.7266666666666666,
              40.3708
            ],
            [
              -3.7266666666666666,
              40.3564
            ]
          ]
        ]
      },
      "properties": {
        "id_edificio": 13,
        "area_m2": 10800,
        "altura_m": 90,
        "ancho_m": 120,
        "tipo": "sintetico",
        "fill": "#BFC5CC",
        "fill-opacity": 0.85,
        "stroke": "#4A4A4A",
        "stroke-width": 0.8
      },
      "id": 12
    }
  ]
}