{
  "type": "FeatureCollection",
  "features": [
    {
      "type": "Feature",
      "geometry": {
        "type": "LineString",
        "coordinates": [
          [
            0.0,
            0.0
          ],
          [
            600.0,
            0.0
          ]
        ]
      },
      "properties": {
        "nombre": "Carretera principal",
        "tipo_fuente": "lineal",
        "stroke": "#555555",
        "stroke-width": 4.0,
        "stroke-opacity": 1.0
      },
      "id": 0
    },
    {
      "type": "Feature",
      "geometry": {
        "type": "Point",
        "coordinates": [
          320.0,
          80.0
        ]
      },
      "properties": {
        "nombre": "Foco industrial",
        "tipo_fuente": "puntual",
        "marker-color": "#8B0000",
        "marker-size": 12,
        "marker-opacity": 1.0
      },
      "id": 1
    }
  ]
}